TEVEL2-4                
1 63213U 25052D   26068.69417973  .00020990  00000+0  70363-3 0  9998
2 63213  97.4009 325.1237 0004733  95.3468 264.8313 15.30925813 54879
STARLINK-34812          
1 66026U 25232X   26068.51024306  .00026519  00000+0  90441-3 0  9990
2 66026  53.1585 105.0533 0001222  76.6476 283.4661 15.30195578 23390
