[{"OBJECT_NAME":"TEVEL2-4","OBJECT_ID":"2025-052D","EPOCH":"2026-03-09T16:39:37.129536","MEAN_MOTION":15.30925813,"ECCENTRICITY":0.0004733,"INCLINATION":97.4009,"RA_OF_ASC_NODE":325.1237,"ARG_OF_PERICENTER":95.3468,"MEAN_ANOMALY":264.8313,"EPHEMERIS_TYPE":0,"CLASSIFICATION_TYPE":"U","NORAD_CAT_ID":63213,"ELEMENT_SET_NO":999,"REV_AT_EPOCH":5487,"BSTAR":0.00070362503,"MEAN_MOTION_DOT":0.0002099,"MEAN_MOTION_DDOT":0},{"OBJECT_NAME":"STARLINK-34812","OBJECT_ID":"2025-232X","EPOCH":"2026-03-09T12:14:45.000384","MEAN_MOTION":15.30195578,"ECCENTRICITY":0.00012224,"INCLINATION":53.1585,"RA_OF_ASC_NODE":105.0533,"ARG_OF_PERICENTER":76.6476,"MEAN_ANOMALY":283.4661,"EPHEMERIS_TYPE":0,"CLASSIFICATION_TYPE":"U","NORAD_CAT_ID":66026,"ELEMENT_SET_NO":999,"REV_AT_EPOCH":2339,"BSTAR":0.00090441164,"MEAN_MOTION_DOT":0.00026519,"MEAN_MOTION_DDOT":0}]
